start=new Date('2021-11-24T00:00:00.000Z').valueOf();
sats=[{"GP_ID":"190364084","OBJECT_TYPE":"PAYLOAD","RCS_SIZE":"LARGE","DECAY_DATE":null,"INCLINATION":"53.0561","EPOCH":"2021-11-23T15:18:02.683584","ELEMENT_SET_NO":"999","PERIOD":"95.592","TIME_SYSTEM":"UTC","SITE":"AFETR","COUNTRY_CODE":"US","MEAN_ELEMENT_THEORY":"SGP4","MEAN_MOTION_DOT":"0.00001753","TLE_LINE2":"2 48329  53.0561 296.3839 0001816  62.5956 297.5218 15.06403344 31847","REF_FRAME":"TEME","MEAN_ANOMALY":"297.5218","ARG_OF_PERICENTER":"62.5956","REV_AT_EPOCH":"3184","EPHEMERIS_TYPE":"0","OBJECT_ID":"2021-036BF","TLE_LINE1":"1 48329U 21036BF  21327.63753106  .00001753  00000-0  13652-3 0  9990","APOAPSIS":"548.461","BSTAR":"0.00013652000000","MEAN_MOTION_DDOT":"0.0000000000000","CENTER_NAME":"EARTH","LAUNCH_DATE":"2021-04-29","MEAN_MOTION":"15.06403344","CLASSIFICATION_TYPE":"U","RA_OF_ASC_NODE":"296.3839","OBJECT_NAME":"STARLINK-2510","SEMIMAJOR_AXIS":"6925.338","PERIAPSIS":"545.946","ECCENTRICITY":"0.00018160","FILE":"3222563","NORAD_CAT_ID":"48329"},{"TIME_SYSTEM":"UTC","COUNTRY_CODE":"US","SITE":"AFETR","MEAN_ELEMENT_THEORY":"SGP4","MEAN_MOTION_DOT":"0.00001664","TLE_LINE2":"2 48330  53.0564 295.2159 0002133  56.3593 303.7599 15.06401178 31885","EPOCH":"2021-11-23T21:34:53.390784","ELEMENT_SET_NO":"999","PERIOD":"95.592","DECAY_DATE":null,"INCLINATION":"53.0564","RCS_SIZE":"LARGE","OBJECT_TYPE":"PAYLOAD","GP_ID":"190362832","PERIAPSIS":"545.733","SEMIMAJOR_AXIS":"6925.345","FILE":"3222563","NORAD_CAT_ID":"48330","ECCENTRICITY":"0.00021330","LAUNCH_DATE":"2021-04-29","CLASSIFICATION_TYPE":"U","MEAN_MOTION":"15.06401178","OBJECT_NAME":"STARLINK-2501","RA_OF_ASC_NODE":"295.2159","REV_AT_EPOCH":"3188","EPHEMERIS_TYPE":"0","TLE_LINE1":"1 48330U 21036BG  21327.89922906  .00001664  00000-0  13058-3 0  9997","OBJECT_ID":"2021-036BG","MEAN_MOTION_DDOT":"0.0000000000000","BSTAR":"0.00013058000000","APOAPSIS":"548.687","CENTER_NAME":"EARTH","REF_FRAME":"TEME","MEAN_ANOMALY":"303.7599","ARG_OF_PERICENTER":"56.3593"},{"EPOCH":"2021-11-23T21:29:35.910528","ELEMENT_SET_NO":"999","PERIOD":"95.593","TIME_SYSTEM":"UTC","COUNTRY_CODE":"US","SITE":"AFETR","MEAN_ELEMENT_THEORY":"SGP4","MEAN_MOTION_DOT":"-0.00001678","TLE_LINE2":"2 48331  53.0561 295.2264 0001920  62.0318 298.0865 15.06390343 31885","OBJECT_TYPE":"PAYLOAD","GP_ID":"190363082","DECAY_DATE":null,"INCLINATION":"53.0561","RCS_SIZE":"LARGE","LAUNCH_DATE":"2021-04-29","CLASSIFICATION_TYPE":"U","MEAN_MOTION":"15.06390343","OBJECT_NAME":"STARLINK-2514","RA_OF_ASC_NODE":"295.2264","PERIAPSIS":"545.913","SEMIMAJOR_AXIS":"6925.378","FILE":"3222563","NORAD_CAT_ID":"48331","ECCENTRICITY":"0.00019200","REF_FRAME":"TEME","MEAN_ANOMALY":"298.0865","ARG_OF_PERICENTER":"62.0318","EPHEMERIS_TYPE":"0","REV_AT_EPOCH":"3188","TLE_LINE1":"1 48331U 21036BH  21327.89555452 -.00001678  00000-0 -93792-4 0  9997","OBJECT_ID":"2021-036BH","BSTAR":"-0.00009379200000","MEAN_MOTION_DDOT":"0.0000000000000","APOAPSIS":"548.573","CENTER_NAME":"EARTH"},{"PERIAPSIS":"545.967","SEMIMAJOR_AXIS":"6925.341","NORAD_CAT_ID":"48332","FILE":"3222563","ECCENTRICITY":"0.00017900","LAUNCH_DATE":"2021-04-29","CLASSIFICATION_TYPE":"U","MEAN_MOTION":"15.06402410","OBJECT_NAME":"STARLINK-2511","RA_OF_ASC_NODE":"295.2502","REV_AT_EPOCH":"3188","EPHEMERIS_TYPE":"0","TLE_LINE1":"1 48332U 21036BJ  21327.89460042 -.00000515  00000-0 -15695-4 0  9993","OBJECT_ID":"2021-036BJ","BSTAR":"-0.00001569500000","MEAN_MOTION_DDOT":"0.0000000000000","APOAPSIS":"548.446","CENTER_NAME":"EARTH","REF_FRAME":"TEME","MEAN_ANOMALY":"296.4153","ARG_OF_PERICENTER":"63.7020","TIME_SYSTEM":"UTC","COUNTRY_CODE":"US","SITE":"AFETR","MEAN_ELEMENT_THEORY":"SGP4","TLE_LINE2":"2 48332  53.0520 295.2502 0001790  63.7020 296.4153 15.06402410 31880","MEAN_MOTION_DOT":"-0.00000515","EPOCH":"2021-11-23T21:28:13.476288","ELEMENT_SET_NO":"999","PERIOD":"95.592","DECAY_DATE":null,"RCS_SIZE":"LARGE","INCLINATION":"53.0520","OBJECT_TYPE":"PAYLOAD","GP_ID":"190363834"},{"OBJECT_TYPE":"PAYLOAD","GP_ID":"190364585","DECAY_DATE":null,"RCS_SIZE":"LARGE","INCLINATION":"53.0539","EPOCH":"2021-11-23T21:18:58.827168","ELEMENT_SET_NO":"999","PERIOD":"95.593","TIME_SYSTEM":"UTC","COUNTRY_CODE":"US","SITE":"AFETR","MEAN_ELEMENT_THEORY":"SGP4","MEAN_MOTION_DOT":"0.00000318","TLE_LINE2":"2 48333  53.0539 295.2710 0001807  55.5709 304.5451 15.06389971 31882","REF_FRAME":"TEME","MEAN_ANOMALY":"304.5451","ARG_OF_PERICENTER":"55.5709","EPHEMERIS_TYPE":"0","REV_AT_EPOCH":"3188","TLE_LINE1":"1 48333U 21036BK  21327.88818087  .00000318  00000-0  40269-4 0  9993","OBJECT_ID":"2021-036BK","MEAN_MOTION_DDOT":"0.0000000000000","BSTAR":"0.00004026900000","APOAPSIS":"548.496","CENTER_NAME":"EARTH","LAUNCH_DATE":"2021-04-29","CLASSIFICATION_TYPE":"U","MEAN_MOTION":"15.06389971","OBJECT_NAME":"STARLINK-2518","RA_OF_ASC_NODE":"295.2710","PERIAPSIS":"545.993","SEMIMAJOR_AXIS":"6925.379","NORAD_CAT_ID":"48333","FILE":"3222563","ECCENTRICITY":"0.00018070"},{"LAUNCH_DATE":"2021-04-29","MEAN_MOTION":"15.06397196","CLASSIFICATION_TYPE":"U","OBJECT_NAME":"STARLINK-2470","RA_OF_ASC_NODE":"296.4792","SEMIMAJOR_AXIS":"6925.357","PERIAPSIS":"546.001","ECCENTRICITY":"0.00017630","FILE":"3222563","NORAD_CAT_ID":"48334","REF_FRAME":"TEME","MEAN_ANOMALY":"291.9001","ARG_OF_PERICENTER":"68.2175","EPHEMERIS_TYPE":"0","REV_AT_EPOCH":"3184","OBJECT_ID":"2021-036BL","TLE_LINE1":"1 48334U 21036BL  21327.61910913  .00000845  00000-0  75650-4 0  9993","APOAPSIS":"548.443","BSTAR":"0.00007565000000","MEAN_MOTION_DDOT":"0.0000000000000","CENTER_NAME":"EARTH","EPOCH":"2021-11-23T14:51:31.028832","ELEMENT_SET_NO":"999","PERIOD":"95.592","TIME_SYSTEM":"UTC","SITE":"AFETR","COUNTRY_CODE":"US","MEAN_ELEMENT_THEORY":"SGP4","TLE_LINE2":"2 48334  53.0542 296.4792 0001763  68.2175 291.9001 15.06397196 31843","MEAN_MOTION_DOT":"0.00000845","GP_ID":"190363333","OBJECT_TYPE":"PAYLOAD","RCS_SIZE":"LARGE","DECAY_DATE":null,"INCLINATION":"53.0542"},{"CLASSIFICATION_TYPE":"U","MEAN_MOTION":"15.06390099","RA_OF_ASC_NODE":"296.4956","OBJECT_NAME":"STARLINK-2441","LAUNCH_DATE":"2021-04-29","NORAD_CAT_ID":"48335","FILE":"3222563","ECCENTRICITY":"0.00019000","PERIAPSIS":"545.928","SEMIMAJOR_AXIS":"6925.379","ARG_OF_PERICENTER":"60.1090","REF_FRAME":"TEME","MEAN_ANOMALY":"300.0088","BSTAR":"-0.00011172000000","MEAN_MOTION_DDOT":"0.0000000000000","APOAPSIS":"548.560","CENTER_NAME":"EARTH","REV_AT_EPOCH":"3184","EPHEMERIS_TYPE":"0","TLE_LINE1":"1 48335U 21036BM  21327.61541999 -.00001945  00000-0 -11172-3 0  9990","OBJECT_ID":"2021-036BM","ELEMENT_SET_NO":"999","PERIOD":"95.593","EPOCH":"2021-11-23T14:46:12.287136","MEAN_ELEMENT_THEORY":"SGP4","TLE_LINE2":"2 48335  53.0549 296.4956 0001900  60.1090 300.0088 15.06390099 31845","MEAN_MOTION_DOT":"-0.00001945","TIME_SYSTEM":"UTC","COUNTRY_CODE":"US","SITE":"AFETR","OBJECT_TYPE":"PAYLOAD","GP_ID":"190363583","DECAY_DATE":null,"RCS_SIZE":"LARGE","INCLINATION":"53.0549"},{"CENTER_NAME":"EARTH","BSTAR":"0.00009600200000","MEAN_MOTION_DDOT":"0.0000000000000","APOAPSIS":"548.564","TLE_LINE1":"1 48353U 21038A   21327.75364326  .00001148  00000-0  96002-4 0  9993","OBJECT_ID":"2021-038A","EPHEMERIS_TYPE":"0","REV_AT_EPOCH":"3085","ARG_OF_PERICENTER":"81.7592","MEAN_ANOMALY":"278.3616","REF_FRAME":"TEME","FILE":"3222563","NORAD_CAT_ID":"48353","ECCENTRICITY":"0.00019330","PERIAPSIS":"545.887","SEMIMAJOR_AXIS":"6925.360","OBJECT_NAME":"STARLINK-2613","RA_OF_ASC_NODE":"195.8747","CLASSIFICATION_TYPE":"U","MEAN_MOTION":"15.06396148","LAUNCH_DATE":"2021-05-04","DECAY_DATE":null,"RCS_SIZE":"LARGE","INCLINATION":"53.0542","OBJECT_TYPE":"PAYLOAD","GP_ID":"190364587","MEAN_MOTION_DOT":"0.00001148","TLE_LINE2":"2 48353  53.0542 195.8747 0001933  81.7592 278.3616 15.06396148 30855","MEAN_ELEMENT_THEORY":"SGP4","COUNTRY_CODE":"US","SITE":"AFETR","TIME_SYSTEM":"UTC","PERIOD":"95.592","ELEMENT_SET_NO":"999","EPOCH":"2021-11-23T18:05:14.777664"},{"OBJECT_TYPE":"PAYLOAD","GP_ID":"190363335","DECAY_DATE":null,"RCS_SIZE":"LARGE","INCLINATION":"53.0549","PERIOD":"95.593","ELEMENT_SET_NO":"999","EPOCH":"2021-11-23T14:48:51.959520","TLE_LINE2":"2 48354  53.0549 196.4754 0001885  69.8763 290.2429 15.06394108 30838","MEAN_MOTION_DOT":"-0.00000912","MEAN_ELEMENT_THEORY":"SGP4","COUNTRY_CODE":"US","SITE":"AFETR","TIME_SYSTEM":"UTC","ARG_OF_PERICENTER":"69.8763","MEAN_ANOMALY":"290.2429","REF_FRAME":"TEME","CENTER_NAME":"EARTH","MEAN_MOTION_DDOT":"0.0000000000000","BSTAR":"-0.00004230500000","APOAPSIS":"548.537","TLE_LINE1":"1 48354U 21038B   21327.61726805 -.00000912  00000-0 -42305-4 0  9990","OBJECT_ID":"2021-038B","EPHEMERIS_TYPE":"0","REV_AT_EPOCH":"3083","OBJECT_NAME":"STARLINK-2674","RA_OF_ASC_NODE":"196.4754","CLASSIFICATION_TYPE":"U","MEAN_MOTION":"15.06394108","LAUNCH_DATE":"2021-05-04","NORAD_CAT_ID":"48354","FILE":"3222563","ECCENTRICITY":"0.00018850","PERIAPSIS":"545.926","SEMIMAJOR_AXIS":"6925.367"},{"OBJECT_NAME":"STARLINK-2635","RA_OF_ASC_NODE":"197.6925","CLASSIFICATION_TYPE":"U","MEAN_MOTION":"15.06393003","LAUNCH_DATE":"2021-05-04","FILE":"3222418","NORAD_CAT_ID":"48355","ECCENTRICITY":"0.00021590","PERIAPSIS":"545.740","SEMIMAJOR_AXIS":"6925.370","ARG_OF_PERICENTER":"73.4079","MEAN_ANOMALY":"286.7147","REF_FRAME":"TEME","CENTER_NAME":"EARTH","MEAN_MOTION_DDOT":"0.0000000000000","BSTAR":"-0.00002893400000","APOAPSIS":"548.730","TLE_LINE1":"1 48355U 21038C   21327.34819098 -.00000713  00000-0 -28934-4 0  9999","OBJECT_ID":"2021-038C","EPHEMERIS_TYPE":"0","REV_AT_EPOCH":"3079","PERIOD":"95.593","ELEMENT_SET_NO":"999","EPOCH":"2021-11-23T08:21:23.700672","MEAN_MOTION_DOT":"-0.00000713","TLE_LINE2":"2 48355  53.0554 197.6925 0002159  73.4079 286.7147 15.06393003 30799","MEAN_ELEMENT_THEORY":"SGP4","COUNTRY_CODE":"US","SITE":"AFETR","TIME_SYSTEM":"UTC","OBJECT_TYPE":"PAYLOAD","GP_ID":"190337294","RCS_SIZE":"LARGE","DECAY_DATE":null,"INCLINATION":"53.0554"}];
